0 SL-8 R/B
1 11239U 79003B   13280.87952127  .00000044  00000-0  29642-4 0  2088
2 11239 082.9419 009.2845 0040910 196.9541 301.3034 13.75695192742463
0 SL-8 R/B
1 11239U 79003B   13282.91245072  .00000049  00000-0  35033-4 0  2096
2 11239 082.9420 007.7763 0041055 191.3405 289.3273 13.75695538742741
0 SL-8 R/B
1 11239U 79003B   13287.18511141  .00000079  00000-0  65390-4 0  2118
2 11239 082.9417 004.6070 0041325 179.4397 209.6632 13.75695493743331
0 SL-8 R/B
1 11239U 79003B   13289.52497513  .00000076  00000-0  62049-4 0  2120
2 11239 082.9412 002.8713 0041446 173.0679 277.6846 13.75695738743656
0 SL-8 R/B
1 11239U 79003B   13292.20832139  .00000065  00000-0  50883-4 0  2138
2 11239 082.9407 000.8806 0041621 165.6391 246.9043 13.75696308744028
0 SL-8 R/B
1 11239U 79003B   13294.55224787  .00000039  00000-0  24082-4 0  2146
2 11239 082.9405 359.1414 0041757 159.2034 335.1047 13.75696502744340
